$$SOE
2460728.500000000, A.D. 2025-Feb-22 00:00:00.0000, 2.493393211161219E+08, 1.701013627233911E+08, -1.624525578048328E+08,
2460735.500000000, A.D. 2025-Mar-01 00:00:00.0000, 2.388509157851223E+08, 1.772777560833086E+08, -1.648005663668552E+08,
2460742.500000000, A.D. 2025-Mar-08 00:00:00.0000, 2.280676980039412E+08, 1.842353024170642E+08, -1.669450999053705E+08,
2460749.500000000, A.D. 2025-Mar-15 00:00:00.0000, 2.169962522424948E+08, 1.909599792191994E+08, -1.688785829190930E+08,
2460756.500000000, A.D. 2025-Mar-22 00:00:00.0000, 2.056441113064968E+08, 1.974376040998899E+08, -1.705935395145821E+08,
2460763.500000000, A.D. 2025-Mar-29 00:00:00.0000, 1.940197973799230E+08, 2.036538832810364E+08, -1.720826347153362E+08,
2460770.500000000, A.D. 2025-Apr-05 00:00:00.0000, 1.821328610252705E+08, 2.095944672565126E+08, -1.733387190793676E+08,
2460777.500000000, A.D. 2025-Apr-12 00:00:00.0000, 1.699939152225408E+08, 2.152450137879640E+08, -1.743548762684963E+08,
2460784.500000000, A.D. 2025-Apr-19 00:00:00.0000, 1.576146632079684E+08, 2.205912573113895E+08, -1.751244733700520E+08,
2460791.500000000, A.D. 2025-Apr-26 00:00:00.0000, 1.450079192909750E+08, 2.256190843764159E+08, -1.756412136658075E+08,
2460798.500000000, A.D. 2025-May-03 00:00:00.0000, 1.321876216505602E+08, 2.303146148131548E+08, -1.758991914105392E+08,
2460805.500000000, A.D. 2025-May-10 00:00:00.0000, 1.191688360357747E+08, 2.346642881464295E+08, -1.758929480718698E+08,
2460812.500000000, A.D. 2025-May-17 00:00:00.0000, 1.059677493443222E+08, 2.386549545506496E+08, -1.756175293832577E+08,
2460819.500000000, A.D. 2025-May-24 00:00:00.0000, 9.260165226877140E+07, 2.422739694407812E+08, -1.750685424744097E+08,
2460826.500000000, A.D. 2025-May-31 00:00:00.0000, 7.908891056295784E+07, 2.455092909740175E+08, -1.742422122432307E+08,
2460833.500000000, A.D. 2025-Jun-07 00:00:00.0000, 6.544892382686108E+07, 2.483495804471412E+08, -1.731354359041267E+08,
2460840.500000000, A.D. 2025-Jun-14 00:00:00.0000, 5.170206894944359E+07, 2.507843035297261E+08, -1.717458345477828E+08,
2460847.500000000, A.D. 2025-Jun-21 00:00:00.0000, 3.786962916623709E+07, 2.528038275252563E+08, -1.700718010456365E+08,
2460854.500000000, A.D. 2025-Jun-28 00:00:00.0000, 2.397371188517358E+07, 2.543995147749729E+08, -1.681125433948878E+08,
2460861.500000000, A.D. 2025-Jul-05 00:00:00.0000, 1.003715410821951E+07, 2.555638126264642E+08, -1.658681221532599E+08,
2460868.500000000, A.D. 2025-Jul-12 00:00:00.0000, -3.916585070062611E+06, 2.562903373941765E+08, -1.633394809288793E+08,
2460875.500000000, A.D. 2025-Jul-19 00:00:00.0000, -1.786354368676516E+07, 2.565739499922454E+08, -1.605284690870468E+08,
2460882.500000000, A.D. 2025-Jul-26 00:00:00.0000, -3.177938630056302E+07, 2.564108215177421E+08, -1.574378559191780E+08,
2460889.500000000, A.D. 2025-Aug-02 00:00:00.0000, -4.563954181746577E+07, 2.557984872786488E+08, -1.540713356562228E+08,
2460896.500000000, A.D. 2025-Aug-09 00:00:00.0000, -5.941934778152391E+07, 2.547358879206193E+08, -1.504335228943152E+08,
2460903.500000000, A.D. 2025-Aug-16 00:00:00.0000, -7.309419887147923E+07, 2.532233965074832E+08, -1.465299382195882E+08,
2460910.500000000, A.D. 2025-Aug-23 00:00:00.0000, -8.663969695518534E+07, 2.512628307854460E+08, -1.423669840591579E+08,
2460917.500000000, A.D. 2025-Aug-30 00:00:00.0000, -1.000317999154412E+08, 2.488574508896241E+08, -1.379519109671006E+08,
2460924.500000000, A.D. 2025-Sep-06 00:00:00.0000, -1.132469681819474E+08, 2.460119433939270E+08, -1.332927746065986E+08,
2460931.500000000, A.D. 2025-Sep-13 00:00:00.0000, -1.262623082033971E+08, 2.427323894849519E+08, -1.283983841679717E+08,
2460938.500000000, A.D. 2025-Sep-20 00:00:00.0000, -1.390557072831220E+08, 2.390262162253377E+08, -1.232782435326622E+08,
2460945.500000000, A.D. 2025-Sep-27 00:00:00.0000, -1.516059566328454E+08, 2.349021349613215E+08, -1.179424860766538E+08,
2460952.500000000, A.D. 2025-Oct-04 00:00:00.0000, -1.638928628362913E+08, 2.303700686588819E+08, -1.124018040709671E+08,
2460959.500000000, A.D. 2025-Oct-11 00:00:00.0000, -1.758973465883919E+08, 2.254410687117799E+08, -1.066673739903127E+08,
2460966.500000000, A.D. 2025-Oct-18 00:00:00.0000, -1.876015272814547E+08, 2.201272226207777E+08, -1.007507790971039E+08,
2460973.500000000, A.D. 2025-Oct-25 00:00:00.0000, -1.989887925335055E+08, 2.144415543643537E+08, -9.466393064660034E+07,
2460980.500000000, A.D. 2025-Nov-01 00:00:00.0000, -2.100438522319582E+08, 2.083979193637080E+08, -8.841898901990445E+07,
2460987.500000000, A.D. 2025-Nov-08 00:00:00.0000, -2.207527770341058E+08, 2.020108959131493E+08, -8.202828602066895E+07,
2460994.500000000, A.D. 2025-Nov-15 00:00:00.0000, -2.311030214918145E+08, 1.952956748724757E+08, -7.550424947376612E+07,
2461001.500000000, A.D. 2025-Nov-22 00:00:00.0000, -2.410834320183245E+08, 1.882679495944374E+08, -6.885933113051583E+07,
2461008.500000000, A.D. 2025-Nov-29 00:00:00.0000, -2.506842407345180E+08, 1.809438088299812E+08, -6.210593861105372E+07,
2461015.500000000, A.D. 2025-Dec-06 00:00:00.0000, -2.598970485733103E+08, 1.733396339090635E+08, -5.525637186906504E+07,
2461022.500000000, A.D. 2025-Dec-13 00:00:00.0000, -2.687147984689682E+08, 1.654719980694220E+08, -4.832276501797712E+07,
2461029.500000000, A.D. 2025-Dec-20 00:00:00.0000, -2.771317364956994E+08, 1.573575699838405E+08, -4.131703411566661E+07,
2461036.500000000, A.D. 2025-Dec-27 00:00:00.0000, -2.851433634523298E+08, 1.490130248811433E+08, -3.425083081017005E+07,
2461043.500000000, A.D. 2026-Jan-03 00:00:00.0000, -2.927463798003598E+08, 1.404549632495222E+08, -2.713550184533673E+07,
2461050.500000000, A.D. 2026-Jan-10 00:00:00.0000, -2.999386252630035E+08, 1.316998368539125E+08, -1.998205444974714E+07,
2461057.500000000, A.D. 2026-Jan-17 00:00:00.0000, -3.067190142084506E+08, 1.227638821989651E+08, -1.280112748746022E+07,
2461064.500000000, A.D. 2026-Jan-24 00:00:00.0000, -3.130874680126503E+08, 1.136630615173233E+08, -5.602968138407335E+06,
2461071.500000000, A.D. 2026-Jan-31 00:00:00.0000, -3.190448455495152E+08, 1.044130111905213E+08, 1.602586195461117E+06,
2461078.500000000, A.D. 2026-Feb-07 00:00:00.0000, -3.245928728024991E+08, 9.502899734044610E+07, 8.806121107025158E+06,
2461085.500000000, A.D. 2026-Feb-14 00:00:00.0000, -3.297340722757397E+08, 8.552587827439708E+07, 1.599865389503811E+07,
2461092.500000000, A.D. 2026-Feb-21 00:00:00.0000, -3.344716926205406E+08, 7.591807398342511E+07, 2.317163819855564E+07,
2461099.500000000, A.D. 2026-Feb-28 00:00:00.0000, -3.388096402390379E+08, 6.621954341332711E+07, 3.031696517467231E+07,
2461106.500000000, A.D. 2026-Mar-07 00:00:00.0000, -3.427524154825971E+08, 5.644376708562767E+07, 3.742696167254537E+07,
2461113.500000000, A.D. 2026-Mar-14 00:00:00.0000, -3.463050511158611E+08, 4.660373224333090E+07, 4.449438537104179E+07,
2461120.500000000, A.D. 2026-Mar-21 00:00:00.0000, -3.494730515987231E+08, 3.671192291652437E+07, 5.151241734716668E+07,
2461127.500000000, A.D. 2026-Mar-28 00:00:00.0000, -3.522623354403370E+08, 2.678031542834919E+07, 5.847465271346382E+07,
2461134.500000000, A.D. 2026-Apr-04 00:00:00.0000, -3.546791814047949E+08, 1.682037788097773E+07, 6.537508964700555E+07,
2461141.500000000, A.D. 2026-Apr-11 00:00:00.0000, -3.567301784011844E+08, 6.843072794165466E+06, 7.220811707713410E+07,
2461148.500000000, A.D. 2026-Apr-18 00:00:00.0000, -3.584221789385744E+08, -3.141137549587902E+06, 7.896850131060205E+07,
2461155.500000000, A.D. 2026-Apr-25 00:00:00.0000, -3.597622560842932E+08, -1.312228344900199E+07, 8.565137185502587E+07,
2461162.500000000, A.D. 2026-May-02 00:00:00.0000, -3.607576638344114E+08, -2.309087822654852E+07, 9.225220666930848E+07,
2461169.500000000, A.D. 2026-May-09 00:00:00.0000, -3.614158006763108E+08, -3.303790718398186E+07, 9.876681702906464E+07,
2461176.500000000, A.D. 2026-May-16 00:00:00.0000, -3.617441758429739E+08, -4.295481524877490E+07, 1.051913321612366E+08,
2461183.500000000, A.D. 2026-May-23 00:00:00.0000, -3.617503780647290E+08, -5.283349257371935E+07, 1.115221838788547E+08,
2461190.500000000, A.D. 2026-May-30 00:00:00.0000, -3.614420487410020E+08, -6.266625802455948E+07, 1.177560915618214E+08,
2461197.500000000, A.D. 2026-Jun-06 00:00:00.0000, -3.608268596870650E+08, -7.244584405411319E+07, 1.238900473547491E+08,
2461204.500000000, A.D. 2026-Jun-13 00:00:00.0000, -3.599124916225244E+08, -8.216538295748830E+07, 1.299213013528694E+08,
2461211.500000000, A.D. 2026-Jun-20 00:00:00.0000, -3.587066137278876E+08, -9.181839174754390E+07, 1.358473471317185E+08,
2461218.500000000, A.D. 2026-Jun-27 00:00:00.0000, -3.572168657914149E+08, -1.013987561356024E+08, 1.416659078011637E+08,
2461225.500000000, A.D. 2026-Jul-04 00:00:00.0000, -3.554508427766713E+08, -1.109007145200135E+08, 1.473749225608545E+08,
2461232.500000000, A.D. 2026-Jul-11 00:00:00.0000, -3.534160813953629E+08, -1.203188422236016E+08, 1.529725337545688E+08,
2461239.500000000, A.D. 2026-Jul-18 00:00:00.0000, -3.511200484390779E+08, -1.296480360450578E+08, 1.584570744408507E+08,
2461246.500000000, A.D. 2026-Jul-25 00:00:00.0000, -3.485701306996331E+08, -1.388834991950161E+08, 1.638270564945029E+08,
2461253.500000000, A.D. 2026-Aug-01 00:00:00.0000, -3.457736262914333E+08, -1.480207267225793E+08, 1.690811592399011E+08,
2461260.500000000, A.D. 2026-Aug-08 00:00:00.0000, -3.427377370294524E+08, -1.570554915124874E+08, 1.742182185956729E+08,
2461267.500000000, A.D. 2026-Aug-15 00:00:00.0000, -3.394695613234574E+08, -1.659838304360868E+08, 1.792372167254150E+08,
2461274.500000000, A.D. 2026-Aug-22 00:00:00.0000, -3.359760882326969E+08, -1.748020294596932E+08, 1.841372723549328E+08,
2461281.500000000, A.D. 2026-Aug-29 00:00:00.0000, -3.322641948615919E+08, -1.835066091014751E+08, 1.889176318413599E+08,
2461288.500000000, A.D. 2026-Sep-05 00:00:00.0000, -3.283406448638483E+08, -1.920943131176091E+08, 1.935776605506384E+08,
2461295.500000000, A.D. 2026-Sep-12 00:00:00.0000, -3.242120855094460E+08, -2.005620979273739E+08, 1.981168345071163E+08,
$$EOE